<?xml version="1.0" encoding="UTF-8"?>
<gpx version="1.1" creator="Tail End Charlie" xmlns="http://www.topografix.com/GPX/1/1">
  <metadata>
    <name>Castle Combe to Tetbury — Cotswolds</name>
    <desc>A 24.5 km ride on public roads from the B4039 near Castle Combe to Tetbury, through the Cotswolds and driven on the left. Road geometry from OpenStreetMap (c) OpenStreetMap contributors, ODbL.</desc>
  </metadata>
  <wpt lat="51.498709" lon="-2.222963">
    <name>B4039, Castle Combe</name>
    <sym>Flag, Green</sym>
  </wpt>
  <wpt lat="51.636606" lon="-2.159814">
    <name>Tetbury</name>
    <sym>Flag, Blue</sym>
  </wpt>
  <trk>
    <name>Cotswolds simulation route</name>
    <trkseg>
      <trkpt lat="51.498709" lon="-2.222963" />
      <trkpt lat="51.499192" lon="-2.223324" />
      <trkpt lat="51.499484" lon="-2.223575" />
      <trkpt lat="51.499637" lon="-2.223698" />
      <trkpt lat="51.499838" lon="-2.223824" />
      <trkpt lat="51.500187" lon="-2.223942" />
      <trkpt lat="51.500395" lon="-2.224020" />
      <trkpt lat="51.500558" lon="-2.224082" />
      <trkpt lat="51.500832" lon="-2.224219" />
      <trkpt lat="51.501025" lon="-2.224371" />
      <trkpt lat="51.501387" lon="-2.224695" />
      <trkpt lat="51.501583" lon="-2.224813" />
      <trkpt lat="51.501853" lon="-2.224961" />
      <trkpt lat="51.502030" lon="-2.225073" />
      <trkpt lat="51.502164" lon="-2.225192" />
      <trkpt lat="51.502319" lon="-2.225364" />
      <trkpt lat="51.502525" lon="-2.225589" />
      <trkpt lat="51.502745" lon="-2.225876" />
      <trkpt lat="51.503007" lon="-2.226219" />
      <trkpt lat="51.503308" lon="-2.226582" />
      <trkpt lat="51.503603" lon="-2.226887" />
      <trkpt lat="51.503793" lon="-2.227062" />
      <trkpt lat="51.503962" lon="-2.227217" />
      <trkpt lat="51.504440" lon="-2.227665" />
      <trkpt lat="51.505007" lon="-2.228207" />
      <trkpt lat="51.505292" lon="-2.228457" />
      <trkpt lat="51.505420" lon="-2.228569" />
      <trkpt lat="51.505609" lon="-2.228733" />
      <trkpt lat="51.505671" lon="-2.228811" />
      <trkpt lat="51.505779" lon="-2.228945" />
      <trkpt lat="51.505979" lon="-2.229248" />
      <trkpt lat="51.506338" lon="-2.229814" />
      <trkpt lat="51.506699" lon="-2.230369" />
      <trkpt lat="51.507050" lon="-2.230974" />
      <trkpt lat="51.507226" lon="-2.231291" />
      <trkpt lat="51.507383" lon="-2.231554" />
      <trkpt lat="51.507572" lon="-2.231809" />
      <trkpt lat="51.507851" lon="-2.232075" />
      <trkpt lat="51.508351" lon="-2.232450" />
      <trkpt lat="51.508614" lon="-2.232649" />
      <trkpt lat="51.508897" lon="-2.232917" />
      <trkpt lat="51.509123" lon="-2.233164" />
      <trkpt lat="51.509330" lon="-2.233413" />
      <trkpt lat="51.509852" lon="-2.234153" />
      <trkpt lat="51.510076" lon="-2.234491" />
      <trkpt lat="51.510266" lon="-2.234746" />
      <trkpt lat="51.510436" lon="-2.234914" />
      <trkpt lat="51.510506" lon="-2.234967" />
      <trkpt lat="51.510609" lon="-2.235045" />
      <trkpt lat="51.510801" lon="-2.235262" />
      <trkpt lat="51.511060" lon="-2.234783" />
      <trkpt lat="51.511150" lon="-2.234627" />
      <trkpt lat="51.511215" lon="-2.234522" />
      <trkpt lat="51.511447" lon="-2.234236" />
      <trkpt lat="51.512231" lon="-2.233283" />
      <trkpt lat="51.512835" lon="-2.232735" />
      <trkpt lat="51.513422" lon="-2.232135" />
      <trkpt lat="51.513941" lon="-2.231588" />
      <trkpt lat="51.514719" lon="-2.230841" />
      <trkpt lat="51.514870" lon="-2.230623" />
      <trkpt lat="51.515013" lon="-2.230250" />
      <trkpt lat="51.515536" lon="-2.228439" />
      <trkpt lat="51.516223" lon="-2.226151" />
      <trkpt lat="51.516765" lon="-2.223832" />
      <trkpt lat="51.517301" lon="-2.221245" />
      <trkpt lat="51.517504" lon="-2.220121" />
      <trkpt lat="51.517596" lon="-2.219486" />
      <trkpt lat="51.517598" lon="-2.218903" />
      <trkpt lat="51.517600" lon="-2.217730" />
      <trkpt lat="51.517540" lon="-2.216740" />
      <trkpt lat="51.517473" lon="-2.214039" />
      <trkpt lat="51.517454" lon="-2.213462" />
      <trkpt lat="51.517478" lon="-2.212724" />
      <trkpt lat="51.517536" lon="-2.211980" />
      <trkpt lat="51.517694" lon="-2.210658" />
      <trkpt lat="51.517883" lon="-2.209374" />
      <trkpt lat="51.518121" lon="-2.207971" />
      <trkpt lat="51.518382" lon="-2.206643" />
      <trkpt lat="51.518584" lon="-2.205553" />
      <trkpt lat="51.518614" lon="-2.205569" />
      <trkpt lat="51.518795" lon="-2.205735" />
      <trkpt lat="51.519080" lon="-2.205926" />
      <trkpt lat="51.519368" lon="-2.206088" />
      <trkpt lat="51.520622" lon="-2.206797" />
      <trkpt lat="51.522392" lon="-2.207720" />
      <trkpt lat="51.523774" lon="-2.208464" />
      <trkpt lat="51.524223" lon="-2.208612" />
      <trkpt lat="51.524933" lon="-2.208699" />
      <trkpt lat="51.525107" lon="-2.208769" />
      <trkpt lat="51.525247" lon="-2.209008" />
      <trkpt lat="51.525646" lon="-2.210316" />
      <trkpt lat="51.525910" lon="-2.210791" />
      <trkpt lat="51.526472" lon="-2.211275" />
      <trkpt lat="51.526693" lon="-2.211556" />
      <trkpt lat="51.527145" lon="-2.212351" />
      <trkpt lat="51.527430" lon="-2.212576" />
      <trkpt lat="51.527787" lon="-2.212727" />
      <trkpt lat="51.528326" lon="-2.212978" />
      <trkpt lat="51.530375" lon="-2.213779" />
      <trkpt lat="51.530606" lon="-2.213851" />
      <trkpt lat="51.530696" lon="-2.213847" />
      <trkpt lat="51.530809" lon="-2.213773" />
      <trkpt lat="51.531909" lon="-2.212851" />
      <trkpt lat="51.534157" lon="-2.210695" />
      <trkpt lat="51.534480" lon="-2.210377" />
      <trkpt lat="51.534488" lon="-2.210369" />
      <trkpt lat="51.536429" lon="-2.208358" />
      <trkpt lat="51.537357" lon="-2.207393" />
      <trkpt lat="51.537397" lon="-2.207351" />
      <trkpt lat="51.540425" lon="-2.204295" />
      <trkpt lat="51.542167" lon="-2.202430" />
      <trkpt lat="51.543539" lon="-2.201041" />
      <trkpt lat="51.544278" lon="-2.200233" />
      <trkpt lat="51.544706" lon="-2.199777" />
      <trkpt lat="51.544820" lon="-2.199650" />
      <trkpt lat="51.545623" lon="-2.198854" />
      <trkpt lat="51.546539" lon="-2.197915" />
      <trkpt lat="51.547135" lon="-2.197287" />
      <trkpt lat="51.547731" lon="-2.196710" />
      <trkpt lat="51.548007" lon="-2.196440" />
      <trkpt lat="51.548150" lon="-2.196276" />
      <trkpt lat="51.548536" lon="-2.195737" />
      <trkpt lat="51.549127" lon="-2.195212" />
      <trkpt lat="51.549703" lon="-2.194595" />
      <trkpt lat="51.550230" lon="-2.194080" />
      <trkpt lat="51.551897" lon="-2.192157" />
      <trkpt lat="51.553714" lon="-2.190330" />
      <trkpt lat="51.554111" lon="-2.189924" />
      <trkpt lat="51.554178" lon="-2.189857" />
      <trkpt lat="51.555274" lon="-2.188762" />
      <trkpt lat="51.555343" lon="-2.188702" />
      <trkpt lat="51.555757" lon="-2.188313" />
      <trkpt lat="51.556251" lon="-2.187849" />
      <trkpt lat="51.556621" lon="-2.187495" />
      <trkpt lat="51.556989" lon="-2.187097" />
      <trkpt lat="51.557522" lon="-2.186634" />
      <trkpt lat="51.557542" lon="-2.186616" />
      <trkpt lat="51.557331" lon="-2.186124" />
      <trkpt lat="51.557076" lon="-2.185721" />
      <trkpt lat="51.556646" lon="-2.184957" />
      <trkpt lat="51.556392" lon="-2.184629" />
      <trkpt lat="51.556087" lon="-2.184217" />
      <trkpt lat="51.555783" lon="-2.183797" />
      <trkpt lat="51.555605" lon="-2.183470" />
      <trkpt lat="51.555387" lon="-2.183204" />
      <trkpt lat="51.554768" lon="-2.182680" />
      <trkpt lat="51.554123" lon="-2.182235" />
      <trkpt lat="51.553680" lon="-2.181929" />
      <trkpt lat="51.553383" lon="-2.181717" />
      <trkpt lat="51.553294" lon="-2.181602" />
      <trkpt lat="51.553269" lon="-2.181523" />
      <trkpt lat="51.553260" lon="-2.181447" />
      <trkpt lat="51.553263" lon="-2.181346" />
      <trkpt lat="51.553302" lon="-2.181239" />
      <trkpt lat="51.553429" lon="-2.181071" />
      <trkpt lat="51.553619" lon="-2.180826" />
      <trkpt lat="51.553841" lon="-2.180479" />
      <trkpt lat="51.554026" lon="-2.180076" />
      <trkpt lat="51.554172" lon="-2.179680" />
      <trkpt lat="51.554272" lon="-2.179262" />
      <trkpt lat="51.554339" lon="-2.178852" />
      <trkpt lat="51.554429" lon="-2.178092" />
      <trkpt lat="51.554526" lon="-2.177357" />
      <trkpt lat="51.554616" lon="-2.177021" />
      <trkpt lat="51.554963" lon="-2.176148" />
      <trkpt lat="51.555662" lon="-2.174388" />
      <trkpt lat="51.555940" lon="-2.173509" />
      <trkpt lat="51.556177" lon="-2.172838" />
      <trkpt lat="51.556231" lon="-2.172614" />
      <trkpt lat="51.556435" lon="-2.171632" />
      <trkpt lat="51.556484" lon="-2.171317" />
      <trkpt lat="51.556711" lon="-2.170678" />
      <trkpt lat="51.556917" lon="-2.170029" />
      <trkpt lat="51.557213" lon="-2.169365" />
      <trkpt lat="51.557388" lon="-2.168914" />
      <trkpt lat="51.557439" lon="-2.168716" />
      <trkpt lat="51.557508" lon="-2.168255" />
      <trkpt lat="51.557700" lon="-2.167748" />
      <trkpt lat="51.557849" lon="-2.167357" />
      <trkpt lat="51.558016" lon="-2.166873" />
      <trkpt lat="51.558073" lon="-2.166556" />
      <trkpt lat="51.558109" lon="-2.165884" />
      <trkpt lat="51.558042" lon="-2.165615" />
      <trkpt lat="51.558081" lon="-2.165580" />
      <trkpt lat="51.558500" lon="-2.165191" />
      <trkpt lat="51.559092" lon="-2.164825" />
      <trkpt lat="51.559167" lon="-2.164766" />
      <trkpt lat="51.559205" lon="-2.164725" />
      <trkpt lat="51.559217" lon="-2.164712" />
      <trkpt lat="51.559228" lon="-2.164745" />
      <trkpt lat="51.559276" lon="-2.164880" />
      <trkpt lat="51.559910" lon="-2.165718" />
      <trkpt lat="51.560291" lon="-2.166277" />
      <trkpt lat="51.560641" lon="-2.166686" />
      <trkpt lat="51.560786" lon="-2.166815" />
      <trkpt lat="51.561169" lon="-2.166998" />
      <trkpt lat="51.561568" lon="-2.167249" />
      <trkpt lat="51.561925" lon="-2.167578" />
      <trkpt lat="51.562825" lon="-2.168536" />
      <trkpt lat="51.563139" lon="-2.168869" />
      <trkpt lat="51.563652" lon="-2.169302" />
      <trkpt lat="51.564187" lon="-2.169766" />
      <trkpt lat="51.564678" lon="-2.170325" />
      <trkpt lat="51.565012" lon="-2.170631" />
      <trkpt lat="51.565246" lon="-2.170868" />
      <trkpt lat="51.565445" lon="-2.171140" />
      <trkpt lat="51.565851" lon="-2.171701" />
      <trkpt lat="51.566310" lon="-2.172290" />
      <trkpt lat="51.566633" lon="-2.172733" />
      <trkpt lat="51.567081" lon="-2.173413" />
      <trkpt lat="51.567441" lon="-2.173918" />
      <trkpt lat="51.567665" lon="-2.174176" />
      <trkpt lat="51.567981" lon="-2.174424" />
      <trkpt lat="51.568316" lon="-2.174683" />
      <trkpt lat="51.568554" lon="-2.174906" />
      <trkpt lat="51.568639" lon="-2.174962" />
      <trkpt lat="51.568702" lon="-2.174922" />
      <trkpt lat="51.568806" lon="-2.174839" />
      <trkpt lat="51.569097" lon="-2.174510" />
      <trkpt lat="51.569359" lon="-2.174210" />
      <trkpt lat="51.570089" lon="-2.173310" />
      <trkpt lat="51.570819" lon="-2.172518" />
      <trkpt lat="51.570952" lon="-2.172443" />
      <trkpt lat="51.571259" lon="-2.172357" />
      <trkpt lat="51.571540" lon="-2.172302" />
      <trkpt lat="51.572224" lon="-2.172393" />
      <trkpt lat="51.572331" lon="-2.172407" />
      <trkpt lat="51.573337" lon="-2.172537" />
      <trkpt lat="51.574394" lon="-2.172678" />
      <trkpt lat="51.575422" lon="-2.172969" />
      <trkpt lat="51.576598" lon="-2.173094" />
      <trkpt lat="51.578349" lon="-2.173557" />
      <trkpt lat="51.579805" lon="-2.173664" />
      <trkpt lat="51.580272" lon="-2.173578" />
      <trkpt lat="51.580813" lon="-2.173644" />
      <trkpt lat="51.581282" lon="-2.173772" />
      <trkpt lat="51.582094" lon="-2.174196" />
      <trkpt lat="51.582494" lon="-2.174288" />
      <trkpt lat="51.583604" lon="-2.174318" />
      <trkpt lat="51.584004" lon="-2.174374" />
      <trkpt lat="51.584333" lon="-2.174440" />
      <trkpt lat="51.584388" lon="-2.174438" />
      <trkpt lat="51.584452" lon="-2.174408" />
      <trkpt lat="51.584616" lon="-2.174237" />
      <trkpt lat="51.584787" lon="-2.174114" />
      <trkpt lat="51.585022" lon="-2.174082" />
      <trkpt lat="51.585242" lon="-2.174101" />
      <trkpt lat="51.585530" lon="-2.174125" />
      <trkpt lat="51.585657" lon="-2.174087" />
      <trkpt lat="51.585732" lon="-2.173934" />
      <trkpt lat="51.585958" lon="-2.173506" />
      <trkpt lat="51.586172" lon="-2.173109" />
      <trkpt lat="51.586481" lon="-2.172781" />
      <trkpt lat="51.586834" lon="-2.172469" />
      <trkpt lat="51.586990" lon="-2.172406" />
      <trkpt lat="51.587211" lon="-2.172398" />
      <trkpt lat="51.587391" lon="-2.172425" />
      <trkpt lat="51.587409" lon="-2.172348" />
      <trkpt lat="51.587685" lon="-2.171210" />
      <trkpt lat="51.587717" lon="-2.171076" />
      <trkpt lat="51.587718" lon="-2.170449" />
      <trkpt lat="51.587710" lon="-2.169571" />
      <trkpt lat="51.587611" lon="-2.168149" />
      <trkpt lat="51.587834" lon="-2.165945" />
      <trkpt lat="51.587948" lon="-2.165375" />
      <trkpt lat="51.588266" lon="-2.163951" />
      <trkpt lat="51.588310" lon="-2.163423" />
      <trkpt lat="51.588285" lon="-2.162974" />
      <trkpt lat="51.588136" lon="-2.161995" />
      <trkpt lat="51.587949" lon="-2.160306" />
      <trkpt lat="51.587803" lon="-2.158685" />
      <trkpt lat="51.587743" lon="-2.157934" />
      <trkpt lat="51.587681" lon="-2.157156" />
      <trkpt lat="51.587624" lon="-2.156339" />
      <trkpt lat="51.587597" lon="-2.155449" />
      <trkpt lat="51.587583" lon="-2.155113" />
      <trkpt lat="51.587567" lon="-2.154882" />
      <trkpt lat="51.587522" lon="-2.154472" />
      <trkpt lat="51.587260" lon="-2.152389" />
      <trkpt lat="51.587230" lon="-2.151896" />
      <trkpt lat="51.587234" lon="-2.151370" />
      <trkpt lat="51.587286" lon="-2.150806" />
      <trkpt lat="51.587343" lon="-2.150377" />
      <trkpt lat="51.587726" lon="-2.148313" />
      <trkpt lat="51.588048" lon="-2.146570" />
      <trkpt lat="51.588397" lon="-2.143623" />
      <trkpt lat="51.588629" lon="-2.142420" />
      <trkpt lat="51.588633" lon="-2.142337" />
      <trkpt lat="51.588658" lon="-2.141880" />
      <trkpt lat="51.588572" lon="-2.138952" />
      <trkpt lat="51.588371" lon="-2.137644" />
      <trkpt lat="51.588207" lon="-2.136013" />
      <trkpt lat="51.588174" lon="-2.135692" />
      <trkpt lat="51.588154" lon="-2.135490" />
      <trkpt lat="51.588144" lon="-2.135355" />
      <trkpt lat="51.588142" lon="-2.135233" />
      <trkpt lat="51.588145" lon="-2.135146" />
      <trkpt lat="51.588150" lon="-2.135073" />
      <trkpt lat="51.588160" lon="-2.134991" />
      <trkpt lat="51.588172" lon="-2.134923" />
      <trkpt lat="51.588192" lon="-2.134836" />
      <trkpt lat="51.588210" lon="-2.134766" />
      <trkpt lat="51.588239" lon="-2.134676" />
      <trkpt lat="51.588313" lon="-2.134463" />
      <trkpt lat="51.588379" lon="-2.134263" />
      <trkpt lat="51.588421" lon="-2.134123" />
      <trkpt lat="51.588457" lon="-2.133991" />
      <trkpt lat="51.588508" lon="-2.133793" />
      <trkpt lat="51.588603" lon="-2.133386" />
      <trkpt lat="51.588734" lon="-2.132824" />
      <trkpt lat="51.588814" lon="-2.132512" />
      <trkpt lat="51.588852" lon="-2.132375" />
      <trkpt lat="51.588910" lon="-2.132184" />
      <trkpt lat="51.589018" lon="-2.131838" />
      <trkpt lat="51.589162" lon="-2.131411" />
      <trkpt lat="51.589330" lon="-2.130911" />
      <trkpt lat="51.589373" lon="-2.130779" />
      <trkpt lat="51.589419" lon="-2.130625" />
      <trkpt lat="51.589423" lon="-2.130612" />
      <trkpt lat="51.589453" lon="-2.130495" />
      <trkpt lat="51.589457" lon="-2.130477" />
      <trkpt lat="51.589478" lon="-2.130383" />
      <trkpt lat="51.589502" lon="-2.130261" />
      <trkpt lat="51.589526" lon="-2.130118" />
      <trkpt lat="51.589552" lon="-2.129950" />
      <trkpt lat="51.589596" lon="-2.129683" />
      <trkpt lat="51.589649" lon="-2.129364" />
      <trkpt lat="51.589702" lon="-2.129092" />
      <trkpt lat="51.589760" lon="-2.128843" />
      <trkpt lat="51.589818" lon="-2.128611" />
      <trkpt lat="51.589950" lon="-2.128125" />
      <trkpt lat="51.590039" lon="-2.127773" />
      <trkpt lat="51.590073" lon="-2.127607" />
      <trkpt lat="51.590091" lon="-2.127497" />
      <trkpt lat="51.590167" lon="-2.127483" />
      <trkpt lat="51.590255" lon="-2.127461" />
      <trkpt lat="51.590517" lon="-2.128217" />
      <trkpt lat="51.590748" lon="-2.128693" />
      <trkpt lat="51.591211" lon="-2.129184" />
      <trkpt lat="51.591237" lon="-2.129219" />
      <trkpt lat="51.591360" lon="-2.129387" />
      <trkpt lat="51.591415" lon="-2.129511" />
      <trkpt lat="51.591460" lon="-2.129618" />
      <trkpt lat="51.591711" lon="-2.130355" />
      <trkpt lat="51.592598" lon="-2.132622" />
      <trkpt lat="51.592751" lon="-2.133199" />
      <trkpt lat="51.592972" lon="-2.133887" />
      <trkpt lat="51.593374" lon="-2.134896" />
      <trkpt lat="51.594003" lon="-2.136843" />
      <trkpt lat="51.594210" lon="-2.137403" />
      <trkpt lat="51.594456" lon="-2.137959" />
      <trkpt lat="51.594811" lon="-2.138854" />
      <trkpt lat="51.595047" lon="-2.139323" />
      <trkpt lat="51.595382" lon="-2.139878" />
      <trkpt lat="51.595456" lon="-2.139996" />
      <trkpt lat="51.595687" lon="-2.140344" />
      <trkpt lat="51.596531" lon="-2.140940" />
      <trkpt lat="51.597127" lon="-2.141349" />
      <trkpt lat="51.597193" lon="-2.141417" />
      <trkpt lat="51.597381" lon="-2.141610" />
      <trkpt lat="51.597616" lon="-2.142008" />
      <trkpt lat="51.598093" lon="-2.143399" />
      <trkpt lat="51.598430" lon="-2.144169" />
      <trkpt lat="51.598625" lon="-2.144592" />
      <trkpt lat="51.600190" lon="-2.147339" />
      <trkpt lat="51.600648" lon="-2.149256" />
      <trkpt lat="51.601015" lon="-2.150046" />
      <trkpt lat="51.601464" lon="-2.150770" />
      <trkpt lat="51.601805" lon="-2.151132" />
      <trkpt lat="51.601988" lon="-2.151722" />
      <trkpt lat="51.602213" lon="-2.153249" />
      <trkpt lat="51.602346" lon="-2.154161" />
      <trkpt lat="51.602646" lon="-2.155326" />
      <trkpt lat="51.602979" lon="-2.156077" />
      <trkpt lat="51.603100" lon="-2.157253" />
      <trkpt lat="51.603119" lon="-2.157441" />
      <trkpt lat="51.603162" lon="-2.157859" />
      <trkpt lat="51.603231" lon="-2.158139" />
      <trkpt lat="51.603323" lon="-2.158512" />
      <trkpt lat="51.603423" lon="-2.158900" />
      <trkpt lat="51.603493" lon="-2.159140" />
      <trkpt lat="51.603554" lon="-2.159320" />
      <trkpt lat="51.603615" lon="-2.159446" />
      <trkpt lat="51.603704" lon="-2.159548" />
      <trkpt lat="51.603793" lon="-2.159626" />
      <trkpt lat="51.603854" lon="-2.159656" />
      <trkpt lat="51.604265" lon="-2.159776" />
      <trkpt lat="51.604613" lon="-2.159877" />
      <trkpt lat="51.604645" lon="-2.159888" />
      <trkpt lat="51.604847" lon="-2.159963" />
      <trkpt lat="51.605294" lon="-2.160135" />
      <trkpt lat="51.606036" lon="-2.160453" />
      <trkpt lat="51.606595" lon="-2.160698" />
      <trkpt lat="51.606724" lon="-2.160754" />
      <trkpt lat="51.607186" lon="-2.160705" />
      <trkpt lat="51.607788" lon="-2.160642" />
      <trkpt lat="51.607988" lon="-2.160621" />
      <trkpt lat="51.608176" lon="-2.160566" />
      <trkpt lat="51.608662" lon="-2.160510" />
      <trkpt lat="51.608907" lon="-2.160517" />
      <trkpt lat="51.609145" lon="-2.160590" />
      <trkpt lat="51.609346" lon="-2.160687" />
      <trkpt lat="51.609569" lon="-2.160842" />
      <trkpt lat="51.609818" lon="-2.161019" />
      <trkpt lat="51.610927" lon="-2.161859" />
      <trkpt lat="51.611115" lon="-2.161997" />
      <trkpt lat="51.611316" lon="-2.162145" />
      <trkpt lat="51.612125" lon="-2.162681" />
      <trkpt lat="51.612780" lon="-2.163145" />
      <trkpt lat="51.613463" lon="-2.163567" />
      <trkpt lat="51.614462" lon="-2.164286" />
      <trkpt lat="51.615183" lon="-2.164786" />
      <trkpt lat="51.616299" lon="-2.165433" />
      <trkpt lat="51.616474" lon="-2.165579" />
      <trkpt lat="51.616652" lon="-2.165752" />
      <trkpt lat="51.616981" lon="-2.166107" />
      <trkpt lat="51.617382" lon="-2.166553" />
      <trkpt lat="51.617694" lon="-2.166907" />
      <trkpt lat="51.617846" lon="-2.167015" />
      <trkpt lat="51.618317" lon="-2.167264" />
      <trkpt lat="51.618418" lon="-2.167319" />
      <trkpt lat="51.618496" lon="-2.167363" />
      <trkpt lat="51.618793" lon="-2.167527" />
      <trkpt lat="51.619006" lon="-2.167668" />
      <trkpt lat="51.619168" lon="-2.167775" />
      <trkpt lat="51.619378" lon="-2.167895" />
      <trkpt lat="51.619553" lon="-2.167980" />
      <trkpt lat="51.620491" lon="-2.168291" />
      <trkpt lat="51.620801" lon="-2.168469" />
      <trkpt lat="51.621041" lon="-2.168641" />
      <trkpt lat="51.621336" lon="-2.168874" />
      <trkpt lat="51.621476" lon="-2.168908" />
      <trkpt lat="51.621973" lon="-2.168853" />
      <trkpt lat="51.622944" lon="-2.168564" />
      <trkpt lat="51.623056" lon="-2.168545" />
      <trkpt lat="51.623194" lon="-2.168550" />
      <trkpt lat="51.623347" lon="-2.168610" />
      <trkpt lat="51.623734" lon="-2.168815" />
      <trkpt lat="51.624684" lon="-2.169436" />
      <trkpt lat="51.625065" lon="-2.169696" />
      <trkpt lat="51.625312" lon="-2.169913" />
      <trkpt lat="51.625430" lon="-2.170044" />
      <trkpt lat="51.625589" lon="-2.169833" />
      <trkpt lat="51.625941" lon="-2.169504" />
      <trkpt lat="51.625989" lon="-2.169468" />
      <trkpt lat="51.626337" lon="-2.169245" />
      <trkpt lat="51.627022" lon="-2.169098" />
      <trkpt lat="51.627476" lon="-2.168927" />
      <trkpt lat="51.629135" lon="-2.167795" />
      <trkpt lat="51.629358" lon="-2.167560" />
      <trkpt lat="51.630080" lon="-2.166685" />
      <trkpt lat="51.630560" lon="-2.166013" />
      <trkpt lat="51.631246" lon="-2.164925" />
      <trkpt lat="51.631648" lon="-2.164243" />
      <trkpt lat="51.631909" lon="-2.163827" />
      <trkpt lat="51.632138" lon="-2.163498" />
      <trkpt lat="51.632227" lon="-2.163371" />
      <trkpt lat="51.632342" lon="-2.163235" />
      <trkpt lat="51.632465" lon="-2.163091" />
      <trkpt lat="51.632872" lon="-2.162707" />
      <trkpt lat="51.633722" lon="-2.161984" />
      <trkpt lat="51.633905" lon="-2.161838" />
      <trkpt lat="51.634062" lon="-2.161707" />
      <trkpt lat="51.634139" lon="-2.161638" />
      <trkpt lat="51.634262" lon="-2.161538" />
      <trkpt lat="51.635040" lon="-2.160899" />
      <trkpt lat="51.635067" lon="-2.160875" />
      <trkpt lat="51.635092" lon="-2.160850" />
      <trkpt lat="51.635394" lon="-2.160470" />
      <trkpt lat="51.635473" lon="-2.160386" />
      <trkpt lat="51.635616" lon="-2.160304" />
      <trkpt lat="51.635873" lon="-2.160229" />
      <trkpt lat="51.635968" lon="-2.160234" />
      <trkpt lat="51.636041" lon="-2.160235" />
      <trkpt lat="51.636126" lon="-2.160226" />
      <trkpt lat="51.636193" lon="-2.160196" />
      <trkpt lat="51.636290" lon="-2.160139" />
      <trkpt lat="51.636391" lon="-2.160046" />
      <trkpt lat="51.636493" lon="-2.159943" />
      <trkpt lat="51.636606" lon="-2.159814" />
    </trkseg>
  </trk>
</gpx>
