<?xml version="1.0" encoding="UTF-8"?>
<gpx version="1.1" creator="Tail End Charlie" xmlns="http://www.topografix.com/GPX/1/1">
  <metadata>
    <name>Argentat to Saint-Privat — France</name>
    <desc>A 17.9 km excerpt of the supplied Day 3 route to Puy Mary, following the D 980 from Argentat-sur-Dordogne to Saint-Privat.</desc>
  </metadata>
  <wpt lat="45.091250" lon="1.940110">
    <name>Pont Henri IV, Argentat</name>
    <sym>Flag, Green</sym>
  </wpt>
  <wpt lat="45.136960" lon="2.099480">
    <name>Saint-Privat roundabout</name>
    <desc>French right-hand roundabout and second-bike-drop decision.</desc>
    <sym>Waypoint</sym>
  </wpt>
  <wpt lat="45.137010" lon="2.102790">
    <name>Saint-Privat</name>
    <sym>Flag, Blue</sym>
  </wpt>
  <trk>
    <name>Day 3 France simulation route</name>
    <trkseg>
      <trkpt lat="45.091250" lon="1.940110" />
      <trkpt lat="45.090420" lon="1.940640" />
      <trkpt lat="45.090640" lon="1.941520" />
      <trkpt lat="45.090880" lon="1.942610" />
      <trkpt lat="45.090920" lon="1.942700" />
      <trkpt lat="45.090950" lon="1.942750" />
      <trkpt lat="45.091020" lon="1.942830" />
      <trkpt lat="45.091090" lon="1.942890" />
      <trkpt lat="45.091180" lon="1.942930" />
      <trkpt lat="45.091500" lon="1.943010" />
      <trkpt lat="45.091580" lon="1.943040" />
      <trkpt lat="45.091620" lon="1.943080" />
      <trkpt lat="45.091690" lon="1.943210" />
      <trkpt lat="45.091700" lon="1.943280" />
      <trkpt lat="45.091720" lon="1.943370" />
      <trkpt lat="45.091720" lon="1.943440" />
      <trkpt lat="45.091720" lon="1.943520" />
      <trkpt lat="45.091700" lon="1.943600" />
      <trkpt lat="45.091430" lon="1.944340" />
      <trkpt lat="45.091390" lon="1.944570" />
      <trkpt lat="45.091390" lon="1.944690" />
      <trkpt lat="45.091400" lon="1.944850" />
      <trkpt lat="45.091420" lon="1.944940" />
      <trkpt lat="45.091480" lon="1.945110" />
      <trkpt lat="45.091550" lon="1.945230" />
      <trkpt lat="45.091670" lon="1.945380" />
      <trkpt lat="45.091750" lon="1.945440" />
      <trkpt lat="45.091840" lon="1.945480" />
      <trkpt lat="45.092110" lon="1.945550" />
      <trkpt lat="45.092190" lon="1.945590" />
      <trkpt lat="45.092250" lon="1.945640" />
      <trkpt lat="45.092360" lon="1.945750" />
      <trkpt lat="45.092430" lon="1.945850" />
      <trkpt lat="45.092500" lon="1.945960" />
      <trkpt lat="45.092540" lon="1.946050" />
      <trkpt lat="45.092620" lon="1.946350" />
      <trkpt lat="45.092640" lon="1.946510" />
      <trkpt lat="45.092660" lon="1.946620" />
      <trkpt lat="45.092690" lon="1.946710" />
      <trkpt lat="45.092740" lon="1.946790" />
      <trkpt lat="45.092800" lon="1.946850" />
      <trkpt lat="45.092890" lon="1.946890" />
      <trkpt lat="45.092970" lon="1.946880" />
      <trkpt lat="45.093020" lon="1.946860" />
      <trkpt lat="45.093100" lon="1.946780" />
      <trkpt lat="45.093160" lon="1.946670" />
      <trkpt lat="45.093180" lon="1.946520" />
      <trkpt lat="45.093180" lon="1.946430" />
      <trkpt lat="45.093170" lon="1.946260" />
      <trkpt lat="45.093180" lon="1.946150" />
      <trkpt lat="45.093200" lon="1.946020" />
      <trkpt lat="45.093230" lon="1.945920" />
      <trkpt lat="45.093330" lon="1.945780" />
      <trkpt lat="45.093400" lon="1.945720" />
      <trkpt lat="45.093470" lon="1.945680" />
      <trkpt lat="45.093620" lon="1.945660" />
      <trkpt lat="45.093690" lon="1.945680" />
      <trkpt lat="45.093760" lon="1.945710" />
      <trkpt lat="45.093850" lon="1.945760" />
      <trkpt lat="45.093920" lon="1.945830" />
      <trkpt lat="45.093970" lon="1.945910" />
      <trkpt lat="45.094020" lon="1.946010" />
      <trkpt lat="45.094050" lon="1.946110" />
      <trkpt lat="45.094050" lon="1.946200" />
      <trkpt lat="45.094000" lon="1.946550" />
      <trkpt lat="45.093970" lon="1.946910" />
      <trkpt lat="45.093970" lon="1.947170" />
      <trkpt lat="45.093990" lon="1.947300" />
      <trkpt lat="45.094080" lon="1.947580" />
      <trkpt lat="45.094300" lon="1.948130" />
      <trkpt lat="45.094360" lon="1.948380" />
      <trkpt lat="45.094380" lon="1.948560" />
      <trkpt lat="45.094390" lon="1.948790" />
      <trkpt lat="45.094370" lon="1.949340" />
      <trkpt lat="45.094390" lon="1.949950" />
      <trkpt lat="45.094390" lon="1.950100" />
      <trkpt lat="45.094370" lon="1.950240" />
      <trkpt lat="45.094330" lon="1.950360" />
      <trkpt lat="45.094270" lon="1.950470" />
      <trkpt lat="45.094190" lon="1.950550" />
      <trkpt lat="45.094080" lon="1.950610" />
      <trkpt lat="45.094000" lon="1.950620" />
      <trkpt lat="45.093920" lon="1.950590" />
      <trkpt lat="45.093830" lon="1.950540" />
      <trkpt lat="45.093500" lon="1.950200" />
      <trkpt lat="45.093370" lon="1.950110" />
      <trkpt lat="45.093290" lon="1.950070" />
      <trkpt lat="45.093200" lon="1.950040" />
      <trkpt lat="45.093100" lon="1.950020" />
      <trkpt lat="45.092980" lon="1.950020" />
      <trkpt lat="45.092670" lon="1.950120" />
      <trkpt lat="45.092120" lon="1.950270" />
      <trkpt lat="45.091960" lon="1.950320" />
      <trkpt lat="45.091790" lon="1.950400" />
      <trkpt lat="45.091620" lon="1.950510" />
      <trkpt lat="45.091490" lon="1.950630" />
      <trkpt lat="45.091390" lon="1.950760" />
      <trkpt lat="45.091270" lon="1.950940" />
      <trkpt lat="45.091110" lon="1.951230" />
      <trkpt lat="45.090970" lon="1.951530" />
      <trkpt lat="45.090800" lon="1.951770" />
      <trkpt lat="45.090550" lon="1.952020" />
      <trkpt lat="45.089890" lon="1.952490" />
      <trkpt lat="45.089710" lon="1.952590" />
      <trkpt lat="45.089580" lon="1.952640" />
      <trkpt lat="45.089500" lon="1.952650" />
      <trkpt lat="45.089350" lon="1.952640" />
      <trkpt lat="45.089230" lon="1.952600" />
      <trkpt lat="45.088770" lon="1.952410" />
      <trkpt lat="45.088650" lon="1.952390" />
      <trkpt lat="45.088470" lon="1.952380" />
      <trkpt lat="45.088360" lon="1.952410" />
      <trkpt lat="45.088140" lon="1.952530" />
      <trkpt lat="45.087840" lon="1.952710" />
      <trkpt lat="45.087720" lon="1.952770" />
      <trkpt lat="45.087600" lon="1.952790" />
      <trkpt lat="45.087450" lon="1.952800" />
      <trkpt lat="45.087130" lon="1.952780" />
      <trkpt lat="45.085930" lon="1.952650" />
      <trkpt lat="45.085660" lon="1.952670" />
      <trkpt lat="45.085530" lon="1.952690" />
      <trkpt lat="45.085320" lon="1.952780" />
      <trkpt lat="45.085130" lon="1.952920" />
      <trkpt lat="45.085030" lon="1.953000" />
      <trkpt lat="45.084860" lon="1.953200" />
      <trkpt lat="45.084660" lon="1.953510" />
      <trkpt lat="45.084550" lon="1.953760" />
      <trkpt lat="45.084220" lon="1.954510" />
      <trkpt lat="45.083860" lon="1.955250" />
      <trkpt lat="45.083810" lon="1.955380" />
      <trkpt lat="45.083780" lon="1.955560" />
      <trkpt lat="45.083770" lon="1.955690" />
      <trkpt lat="45.083780" lon="1.955810" />
      <trkpt lat="45.083810" lon="1.955920" />
      <trkpt lat="45.083840" lon="1.956020" />
      <trkpt lat="45.083920" lon="1.956190" />
      <trkpt lat="45.084360" lon="1.957090" />
      <trkpt lat="45.084910" lon="1.958330" />
      <trkpt lat="45.085070" lon="1.958700" />
      <trkpt lat="45.085200" lon="1.959100" />
      <trkpt lat="45.085310" lon="1.959500" />
      <trkpt lat="45.085440" lon="1.960240" />
      <trkpt lat="45.085540" lon="1.961040" />
      <trkpt lat="45.085590" lon="1.961240" />
      <trkpt lat="45.085660" lon="1.961410" />
      <trkpt lat="45.085780" lon="1.961590" />
      <trkpt lat="45.086040" lon="1.961820" />
      <trkpt lat="45.086170" lon="1.961960" />
      <trkpt lat="45.086240" lon="1.962060" />
      <trkpt lat="45.086290" lon="1.962150" />
      <trkpt lat="45.086380" lon="1.962390" />
      <trkpt lat="45.086610" lon="1.963340" />
      <trkpt lat="45.086650" lon="1.963560" />
      <trkpt lat="45.086660" lon="1.963810" />
      <trkpt lat="45.086620" lon="1.964050" />
      <trkpt lat="45.086540" lon="1.964240" />
      <trkpt lat="45.086430" lon="1.964400" />
      <trkpt lat="45.086250" lon="1.964560" />
      <trkpt lat="45.086090" lon="1.964680" />
      <trkpt lat="45.085900" lon="1.964800" />
      <trkpt lat="45.085470" lon="1.965030" />
      <trkpt lat="45.085310" lon="1.965120" />
      <trkpt lat="45.085110" lon="1.965260" />
      <trkpt lat="45.084980" lon="1.965410" />
      <trkpt lat="45.084910" lon="1.965520" />
      <trkpt lat="45.084870" lon="1.965610" />
      <trkpt lat="45.084830" lon="1.965710" />
      <trkpt lat="45.084780" lon="1.965920" />
      <trkpt lat="45.084790" lon="1.966110" />
      <trkpt lat="45.084800" lon="1.966240" />
      <trkpt lat="45.084830" lon="1.966340" />
      <trkpt lat="45.084870" lon="1.966460" />
      <trkpt lat="45.084920" lon="1.966570" />
      <trkpt lat="45.085020" lon="1.966720" />
      <trkpt lat="45.085130" lon="1.966850" />
      <trkpt lat="45.085370" lon="1.967070" />
      <trkpt lat="45.085520" lon="1.967190" />
      <trkpt lat="45.085770" lon="1.967340" />
      <trkpt lat="45.085900" lon="1.967400" />
      <trkpt lat="45.086040" lon="1.967430" />
      <trkpt lat="45.086570" lon="1.967480" />
      <trkpt lat="45.086660" lon="1.967500" />
      <trkpt lat="45.086800" lon="1.967590" />
      <trkpt lat="45.086860" lon="1.967650" />
      <trkpt lat="45.086980" lon="1.967820" />
      <trkpt lat="45.087040" lon="1.967960" />
      <trkpt lat="45.087060" lon="1.968090" />
      <trkpt lat="45.087070" lon="1.968200" />
      <trkpt lat="45.087070" lon="1.968300" />
      <trkpt lat="45.087070" lon="1.968400" />
      <trkpt lat="45.087010" lon="1.968610" />
      <trkpt lat="45.086930" lon="1.968790" />
      <trkpt lat="45.086750" lon="1.969000" />
      <trkpt lat="45.086510" lon="1.969230" />
      <trkpt lat="45.086190" lon="1.969580" />
      <trkpt lat="45.086000" lon="1.969840" />
      <trkpt lat="45.085600" lon="1.970430" />
      <trkpt lat="45.085450" lon="1.970630" />
      <trkpt lat="45.085220" lon="1.970860" />
      <trkpt lat="45.084700" lon="1.971320" />
      <trkpt lat="45.084580" lon="1.971440" />
      <trkpt lat="45.084510" lon="1.971540" />
      <trkpt lat="45.084440" lon="1.971670" />
      <trkpt lat="45.084350" lon="1.971900" />
      <trkpt lat="45.084320" lon="1.972100" />
      <trkpt lat="45.084310" lon="1.972280" />
      <trkpt lat="45.084330" lon="1.972540" />
      <trkpt lat="45.084350" lon="1.972670" />
      <trkpt lat="45.084390" lon="1.972800" />
      <trkpt lat="45.084470" lon="1.973020" />
      <trkpt lat="45.084570" lon="1.973250" />
      <trkpt lat="45.084730" lon="1.973580" />
      <trkpt lat="45.084910" lon="1.973860" />
      <trkpt lat="45.084990" lon="1.973960" />
      <trkpt lat="45.085410" lon="1.974400" />
      <trkpt lat="45.085500" lon="1.974510" />
      <trkpt lat="45.085570" lon="1.974620" />
      <trkpt lat="45.085640" lon="1.974800" />
      <trkpt lat="45.085670" lon="1.974970" />
      <trkpt lat="45.085660" lon="1.975180" />
      <trkpt lat="45.085620" lon="1.975360" />
      <trkpt lat="45.085570" lon="1.975490" />
      <trkpt lat="45.085500" lon="1.975640" />
      <trkpt lat="45.085360" lon="1.975780" />
      <trkpt lat="45.085270" lon="1.975830" />
      <trkpt lat="45.084870" lon="1.976020" />
      <trkpt lat="45.084580" lon="1.976190" />
      <trkpt lat="45.084450" lon="1.976290" />
      <trkpt lat="45.084260" lon="1.976460" />
      <trkpt lat="45.084180" lon="1.976580" />
      <trkpt lat="45.084120" lon="1.976690" />
      <trkpt lat="45.084070" lon="1.976800" />
      <trkpt lat="45.084000" lon="1.977040" />
      <trkpt lat="45.083960" lon="1.977190" />
      <trkpt lat="45.083910" lon="1.977520" />
      <trkpt lat="45.083870" lon="1.977850" />
      <trkpt lat="45.083840" lon="1.978590" />
      <trkpt lat="45.083820" lon="1.979130" />
      <trkpt lat="45.083860" lon="1.979570" />
      <trkpt lat="45.083910" lon="1.979980" />
      <trkpt lat="45.083960" lon="1.980200" />
      <trkpt lat="45.084080" lon="1.980660" />
      <trkpt lat="45.084170" lon="1.980930" />
      <trkpt lat="45.084250" lon="1.981170" />
      <trkpt lat="45.084370" lon="1.981410" />
      <trkpt lat="45.084520" lon="1.981690" />
      <trkpt lat="45.085400" lon="1.983200" />
      <trkpt lat="45.085780" lon="1.983810" />
      <trkpt lat="45.085960" lon="1.984070" />
      <trkpt lat="45.086100" lon="1.984230" />
      <trkpt lat="45.086300" lon="1.984440" />
      <trkpt lat="45.086500" lon="1.984610" />
      <trkpt lat="45.086720" lon="1.984760" />
      <trkpt lat="45.086940" lon="1.984880" />
      <trkpt lat="45.087110" lon="1.984950" />
      <trkpt lat="45.087310" lon="1.985010" />
      <trkpt lat="45.087540" lon="1.985070" />
      <trkpt lat="45.087990" lon="1.985160" />
      <trkpt lat="45.088290" lon="1.985240" />
      <trkpt lat="45.088460" lon="1.985290" />
      <trkpt lat="45.088670" lon="1.985380" />
      <trkpt lat="45.088810" lon="1.985450" />
      <trkpt lat="45.088970" lon="1.985560" />
      <trkpt lat="45.089100" lon="1.985670" />
      <trkpt lat="45.089230" lon="1.985810" />
      <trkpt lat="45.089340" lon="1.985950" />
      <trkpt lat="45.089480" lon="1.986150" />
      <trkpt lat="45.089670" lon="1.986470" />
      <trkpt lat="45.090320" lon="1.987610" />
      <trkpt lat="45.090450" lon="1.987840" />
      <trkpt lat="45.090560" lon="1.988000" />
      <trkpt lat="45.090720" lon="1.988210" />
      <trkpt lat="45.090930" lon="1.988440" />
      <trkpt lat="45.091090" lon="1.988590" />
      <trkpt lat="45.091250" lon="1.988730" />
      <trkpt lat="45.091560" lon="1.988930" />
      <trkpt lat="45.093790" lon="1.990210" />
      <trkpt lat="45.093960" lon="1.990290" />
      <trkpt lat="45.097110" lon="1.991510" />
      <trkpt lat="45.097660" lon="1.991750" />
      <trkpt lat="45.097760" lon="1.991810" />
      <trkpt lat="45.097920" lon="1.991920" />
      <trkpt lat="45.098130" lon="1.992090" />
      <trkpt lat="45.098240" lon="1.992210" />
      <trkpt lat="45.098410" lon="1.992410" />
      <trkpt lat="45.098790" lon="1.992910" />
      <trkpt lat="45.099140" lon="1.993370" />
      <trkpt lat="45.099330" lon="1.993640" />
      <trkpt lat="45.099450" lon="1.993860" />
      <trkpt lat="45.099570" lon="1.994120" />
      <trkpt lat="45.101070" lon="1.998080" />
      <trkpt lat="45.101380" lon="1.998930" />
      <trkpt lat="45.101510" lon="1.999360" />
      <trkpt lat="45.101740" lon="2.000330" />
      <trkpt lat="45.102020" lon="2.001310" />
      <trkpt lat="45.102120" lon="2.001630" />
      <trkpt lat="45.102220" lon="2.001920" />
      <trkpt lat="45.103010" lon="2.003720" />
      <trkpt lat="45.103100" lon="2.003900" />
      <trkpt lat="45.103210" lon="2.004070" />
      <trkpt lat="45.103340" lon="2.004240" />
      <trkpt lat="45.103750" lon="2.004770" />
      <trkpt lat="45.103890" lon="2.004990" />
      <trkpt lat="45.104330" lon="2.005770" />
      <trkpt lat="45.104530" lon="2.006170" />
      <trkpt lat="45.105010" lon="2.007250" />
      <trkpt lat="45.105240" lon="2.007710" />
      <trkpt lat="45.105360" lon="2.007910" />
      <trkpt lat="45.105490" lon="2.008080" />
      <trkpt lat="45.105620" lon="2.008220" />
      <trkpt lat="45.105900" lon="2.008480" />
      <trkpt lat="45.106390" lon="2.008880" />
      <trkpt lat="45.106870" lon="2.009300" />
      <trkpt lat="45.107320" lon="2.009710" />
      <trkpt lat="45.107640" lon="2.010090" />
      <trkpt lat="45.107760" lon="2.010300" />
      <trkpt lat="45.107860" lon="2.010530" />
      <trkpt lat="45.108220" lon="2.011520" />
      <trkpt lat="45.108400" lon="2.012060" />
      <trkpt lat="45.108550" lon="2.012430" />
      <trkpt lat="45.110120" lon="2.015500" />
      <trkpt lat="45.111100" lon="2.017400" />
      <trkpt lat="45.111350" lon="2.017900" />
      <trkpt lat="45.111470" lon="2.018150" />
      <trkpt lat="45.111550" lon="2.018340" />
      <trkpt lat="45.111670" lon="2.018700" />
      <trkpt lat="45.111760" lon="2.019000" />
      <trkpt lat="45.111990" lon="2.020390" />
      <trkpt lat="45.112320" lon="2.022500" />
      <trkpt lat="45.113050" lon="2.026970" />
      <trkpt lat="45.113100" lon="2.027290" />
      <trkpt lat="45.113130" lon="2.027580" />
      <trkpt lat="45.113140" lon="2.027790" />
      <trkpt lat="45.113140" lon="2.028000" />
      <trkpt lat="45.113130" lon="2.028190" />
      <trkpt lat="45.113100" lon="2.028460" />
      <trkpt lat="45.113050" lon="2.028750" />
      <trkpt lat="45.113010" lon="2.028960" />
      <trkpt lat="45.112850" lon="2.029470" />
      <trkpt lat="45.111960" lon="2.031720" />
      <trkpt lat="45.111830" lon="2.032140" />
      <trkpt lat="45.111600" lon="2.033050" />
      <trkpt lat="45.111540" lon="2.033490" />
      <trkpt lat="45.111520" lon="2.033700" />
      <trkpt lat="45.111510" lon="2.033940" />
      <trkpt lat="45.111520" lon="2.034160" />
      <trkpt lat="45.111540" lon="2.034420" />
      <trkpt lat="45.111570" lon="2.034630" />
      <trkpt lat="45.112020" lon="2.036980" />
      <trkpt lat="45.112120" lon="2.037350" />
      <trkpt lat="45.112180" lon="2.037530" />
      <trkpt lat="45.112340" lon="2.037920" />
      <trkpt lat="45.112530" lon="2.038240" />
      <trkpt lat="45.113480" lon="2.039530" />
      <trkpt lat="45.113730" lon="2.039850" />
      <trkpt lat="45.114020" lon="2.040160" />
      <trkpt lat="45.114340" lon="2.040470" />
      <trkpt lat="45.114890" lon="2.040970" />
      <trkpt lat="45.115490" lon="2.041590" />
      <trkpt lat="45.117070" lon="2.043240" />
      <trkpt lat="45.117460" lon="2.043790" />
      <trkpt lat="45.117820" lon="2.044390" />
      <trkpt lat="45.118080" lon="2.044890" />
      <trkpt lat="45.118190" lon="2.045130" />
      <trkpt lat="45.118310" lon="2.045430" />
      <trkpt lat="45.118450" lon="2.045890" />
      <trkpt lat="45.118640" lon="2.046580" />
      <trkpt lat="45.119110" lon="2.048420" />
      <trkpt lat="45.119830" lon="2.051290" />
      <trkpt lat="45.119950" lon="2.051740" />
      <trkpt lat="45.120090" lon="2.052160" />
      <trkpt lat="45.120270" lon="2.052650" />
      <trkpt lat="45.120470" lon="2.053120" />
      <trkpt lat="45.120580" lon="2.053340" />
      <trkpt lat="45.120800" lon="2.053730" />
      <trkpt lat="45.121030" lon="2.054080" />
      <trkpt lat="45.123110" lon="2.057080" />
      <trkpt lat="45.124790" lon="2.059540" />
      <trkpt lat="45.124940" lon="2.059790" />
      <trkpt lat="45.125170" lon="2.060250" />
      <trkpt lat="45.125360" lon="2.060670" />
      <trkpt lat="45.125530" lon="2.061130" />
      <trkpt lat="45.125690" lon="2.061660" />
      <trkpt lat="45.126490" lon="2.064760" />
      <trkpt lat="45.126610" lon="2.065060" />
      <trkpt lat="45.126710" lon="2.065260" />
      <trkpt lat="45.126910" lon="2.065510" />
      <trkpt lat="45.127040" lon="2.065650" />
      <trkpt lat="45.128710" lon="2.066950" />
      <trkpt lat="45.128880" lon="2.067100" />
      <trkpt lat="45.129060" lon="2.067300" />
      <trkpt lat="45.129290" lon="2.067640" />
      <trkpt lat="45.130080" lon="2.068940" />
      <trkpt lat="45.130450" lon="2.069600" />
      <trkpt lat="45.131860" lon="2.072600" />
      <trkpt lat="45.132130" lon="2.073050" />
      <trkpt lat="45.132370" lon="2.073370" />
      <trkpt lat="45.132630" lon="2.073690" />
      <trkpt lat="45.132930" lon="2.073980" />
      <trkpt lat="45.135360" lon="2.076020" />
      <trkpt lat="45.135930" lon="2.076520" />
      <trkpt lat="45.137010" lon="2.077510" />
      <trkpt lat="45.137540" lon="2.078020" />
      <trkpt lat="45.137750" lon="2.078260" />
      <trkpt lat="45.137930" lon="2.078530" />
      <trkpt lat="45.138120" lon="2.078890" />
      <trkpt lat="45.138200" lon="2.079070" />
      <trkpt lat="45.138270" lon="2.079260" />
      <trkpt lat="45.138340" lon="2.079520" />
      <trkpt lat="45.138400" lon="2.079760" />
      <trkpt lat="45.138480" lon="2.080140" />
      <trkpt lat="45.138530" lon="2.080620" />
      <trkpt lat="45.138540" lon="2.081090" />
      <trkpt lat="45.138450" lon="2.085610" />
      <trkpt lat="45.138460" lon="2.085970" />
      <trkpt lat="45.138500" lon="2.086500" />
      <trkpt lat="45.138540" lon="2.086820" />
      <trkpt lat="45.138650" lon="2.087380" />
      <trkpt lat="45.138910" lon="2.088540" />
      <trkpt lat="45.138930" lon="2.088730" />
      <trkpt lat="45.138920" lon="2.089000" />
      <trkpt lat="45.138890" lon="2.089170" />
      <trkpt lat="45.138300" lon="2.091780" />
      <trkpt lat="45.138170" lon="2.092270" />
      <trkpt lat="45.137370" lon="2.094860" />
      <trkpt lat="45.136990" lon="2.095860" />
      <trkpt lat="45.136860" lon="2.096230" />
      <trkpt lat="45.136820" lon="2.096350" />
      <trkpt lat="45.136810" lon="2.096470" />
      <trkpt lat="45.136710" lon="2.096730" />
      <trkpt lat="45.136670" lon="2.096970" />
      <trkpt lat="45.136670" lon="2.097220" />
      <trkpt lat="45.136700" lon="2.097640" />
      <trkpt lat="45.136740" lon="2.097980" />
      <trkpt lat="45.136770" lon="2.098120" />
      <trkpt lat="45.136800" lon="2.098230" />
      <trkpt lat="45.137040" lon="2.098670" />
      <trkpt lat="45.137080" lon="2.098820" />
      <trkpt lat="45.137100" lon="2.098900" />
      <trkpt lat="45.137100" lon="2.099070" />
      <trkpt lat="45.137080" lon="2.099180" />
      <trkpt lat="45.137040" lon="2.099300" />
      <trkpt lat="45.136960" lon="2.099480" />
      <trkpt lat="45.136920" lon="2.099460" />
      <trkpt lat="45.136870" lon="2.099470" />
      <trkpt lat="45.136840" lon="2.099500" />
      <trkpt lat="45.136820" lon="2.099550" />
      <trkpt lat="45.136810" lon="2.099610" />
      <trkpt lat="45.136830" lon="2.099680" />
      <trkpt lat="45.136870" lon="2.099730" />
      <trkpt lat="45.136910" lon="2.099740" />
      <trkpt lat="45.136940" lon="2.099730" />
      <trkpt lat="45.136970" lon="2.099700" />
      <trkpt lat="45.136990" lon="2.099660" />
      <trkpt lat="45.137160" lon="2.099680" />
      <trkpt lat="45.137290" lon="2.099710" />
      <trkpt lat="45.137360" lon="2.099750" />
      <trkpt lat="45.137480" lon="2.099860" />
      <trkpt lat="45.137790" lon="2.100250" />
      <trkpt lat="45.137840" lon="2.100330" />
      <trkpt lat="45.137880" lon="2.100470" />
      <trkpt lat="45.137870" lon="2.100570" />
      <trkpt lat="45.137640" lon="2.101060" />
      <trkpt lat="45.137510" lon="2.101400" />
      <trkpt lat="45.137190" lon="2.102300" />
      <trkpt lat="45.137010" lon="2.102790" />
    </trkseg>
  </trk>
</gpx>
